{
  "type": "FeatureCollection",
  "features": [
    {
      "type": "Feature",
      "properties": {
        "norad_id": 34299,
        "name": "COSMOS 2251 DEB",
        "group": "cosmos-2251-debris",
        "lat": 15.443263688187756,
        "lon": -24.329888158078433,
        "alt_km": 330.83117593188945,
        "timestamp": "2025-12-14T05:42:18.856507+00:00",
        "meta_object_name": "COSMOS 2251 DEB",
        "meta_object_id": "1993-036MV",
        "meta_epoch": "2025-12-13T09:49:46.237152",
        "meta_mean_motion": 15.74841995,
        "meta_eccentricity": 0.00182656,
        "meta_inclination": 73.9755,
        "meta_ra_of_asc_node": 333.0102,
        "meta_arg_of_pericenter": 60.5117,
        "meta_mean_anomaly": 299.7927,
        "meta_ephemeris_type": 0,
        "meta_classification_type": "U",
        "meta_norad_cat_id": 34299,
        "meta_element_set_no": 999,
        "meta_rev_at_epoch": 89021,
        "meta_bstar": 0.007873165,
        "meta_mean_motion_dot": 0.01306346,
        "meta_mean_motion_ddot": 0,
        "tle_line1": "1 34299U 93036MV  25347.40956293  .01306346  00000+0  78732-2 0  9998",
        "tle_line2": "2 34299  73.9755 333.0102 0018265  60.5117 299.7927 15.74841995890217"
      },
      "geometry": {
        "type": "Point",
        "coordinates": [
          -24.329888158078433,
          15.443263688187756
        ]
      }
    },
    {
      "type": "Feature",
      "properties": {
        "norad_id": 34301,
        "name": "COSMOS 2251 DEB",
        "group": "cosmos-2251-debris",
        "lat": -52.75937254957874,
        "lon": 141.56018364213747,
        "alt_km": 619.9368250589496,
        "timestamp": "2025-12-14T05:42:18.856517+00:00",
        "meta_object_name": "COSMOS 2251 DEB",
        "meta_object_id": "1993-036MX",
        "meta_epoch": "2025-12-13T14:03:13.719744",
        "meta_mean_motion": 14.84609778,
        "meta_eccentricity": 0.00112415,
        "meta_inclination": 74.0061,
        "meta_ra_of_asc_node": 165.0237,
        "meta_arg_of_pericenter": 225.7161,
        "meta_mean_anomaly": 194.2936,
        "meta_ephemeris_type": 0,
        "meta_classification_type": "U",
        "meta_norad_cat_id": 34301,
        "meta_element_set_no": 999,
        "meta_rev_at_epoch": 88413,
        "meta_bstar": 0.0033761079,
        "meta_mean_motion_dot": 0.00028648,
        "meta_mean_motion_ddot": 0,
        "tle_line1": "1 34301U 93036MX  25347.58557546  .00028648  00000+0  33761-2 0  9997",
        "tle_line2": "2 34301  74.0061 165.0237 0011241 225.7161 194.2936 14.84609778884130"
      },
      "geometry": {
        "type": "Point",
        "coordinates": [
          141.56018364213747,
          -52.75937254957874
        ]
      }
    },
    {
      "type": "Feature",
      "properties": {
        "norad_id": 34302,
        "name": "COSMOS 2251 DEB",
        "group": "cosmos-2251-debris",
        "lat": 29.64680907157169,
        "lon": -68.44840235982691,
        "alt_km": 814.7286600033685,
        "timestamp": "2025-12-14T05:42:18.856527+00:00",
        "meta_object_name": "COSMOS 2251 DEB",
        "meta_object_id": "1993-036MY",
        "meta_epoch": "2025-12-13T12:54:48.801312",
        "meta_mean_motion": 14.39335648,
        "meta_eccentricity": 0.00788096,
        "meta_inclination": 74.178,
        "meta_ra_of_asc_node": 122.1194,
        "meta_arg_of_pericenter": 337.1429,
        "meta_mean_anomaly": 147.8595,
        "meta_ephemeris_type": 0,
        "meta_classification_type": "U",
        "meta_norad_cat_id": 34302,
        "meta_element_set_no": 999,
        "meta_rev_at_epoch": 87732,
        "meta_bstar": 0.00085243138,
        "meta_mean_motion_dot": 2.722e-05,
        "meta_mean_motion_ddot": 0,
        "tle_line1": "1 34302U 93036MY  25347.53806483  .00002722  00000+0  85243-3 0  9998",
        "tle_line2": "2 34302  74.1780 122.1194 0078809 337.1429 147.8595 14.39335648877324"
      },
      "geometry": {
        "type": "Point",
        "coordinates": [
          -68.44840235982691,
          29.64680907157169
        ]
      }
    },
    {
      "type": "Feature",
      "properties": {
        "norad_id": 34303,
        "name": "COSMOS 2251 DEB",
        "group": "cosmos-2251-debris",
        "lat": 49.471198165737384,
        "lon": -55.19473438319902,
        "alt_km": 612.1647425346819,
        "timestamp": "2025-12-14T05:42:18.856537+00:00",
        "meta_object_name": "COSMOS 2251 DEB",
        "meta_object_id": "1993-036MZ",
        "meta_epoch": "2025-12-13T13:46:06.098016",
        "meta_mean_motion": 14.54468902,
        "meta_eccentricity": 0.01350109,
        "meta_inclination": 74.0054,
        "meta_ra_of_asc_node": 286.4608,
        "meta_arg_of_pericenter": 64.6215,
        "meta_mean_anomaly": 112.4393,
        "meta_ephemeris_type": 0,
        "meta_classification_type": "U",
        "meta_norad_cat_id": 34303,
        "meta_element_set_no": 999,
        "meta_rev_at_epoch": 87974,
        "meta_bstar": 0.0017899036,
        "meta_mean_motion_dot": 8.589e-05,
        "meta_mean_motion_ddot": 0,
        "tle_line1": "1 34303U 93036MZ  25347.57368169  .00008589  00000+0  17899-2 0  9995",
        "tle_line2": "2 34303  74.0054 286.4608 0135010  64.6215 112.4393 14.54468902879744"
      },
      "geometry": {
        "type": "Point",
        "coordinates": [
          -55.19473438319902,
          49.471198165737384
        ]
      }
    },
    {
      "type": "Feature",
      "properties": {
        "norad_id": 34304,
        "name": "COSMOS 2251 DEB",
        "group": "cosmos-2251-debris",
        "lat": 68.00538361253342,
        "lon": 165.0476064171878,
        "alt_km": 850.5929418414107,
        "timestamp": "2025-12-14T05:42:18.856548+00:00",
        "meta_object_name": "COSMOS 2251 DEB",
        "meta_object_id": "1993-036NA",
        "meta_epoch": "2025-12-13T16:04:05.115360",
        "meta_mean_motion": 14.3787251,
        "meta_eccentricity": 0.01289769,
        "meta_inclination": 74.0131,
        "meta_ra_of_asc_node": 120.88,
        "meta_arg_of_pericenter": 258.4873,
        "meta_mean_anomaly": 116.0795,
        "meta_ephemeris_type": 0,
        "meta_classification_type": "U",
        "meta_norad_cat_id": 34304,
        "meta_element_set_no": 999,
        "meta_rev_at_epoch": 87310,
        "meta_bstar": 0.0017930331,
        "meta_mean_motion_dot": 5.932e-05,
        "meta_mean_motion_ddot": 0,
        "tle_line1": "1 34304U 93036NA  25347.66950365  .00005932  00000+0  17930-2 0  9996",
        "tle_line2": "2 34304  74.0131 120.8800 0128976 258.4873 116.0795 14.37872510873107"
      },
      "geometry": {
        "type": "Point",
        "coordinates": [
          165.0476064171878,
          68.00538361253342
        ]
      }
    },
    {
      "type": "Feature",
      "properties": {
        "norad_id": 34307,
        "name": "COSMOS 2251 DEB",
        "group": "cosmos-2251-debris",
        "lat": -12.612911940131887,
        "lon": 134.3800301119064,
        "alt_km": 872.8221561829469,
        "timestamp": "2025-12-14T05:42:18.856558+00:00",
        "meta_object_name": "COSMOS 2251 DEB",
        "meta_object_id": "1993-036ND",
        "meta_epoch": "2025-12-13T15:27:02.071008",
        "meta_mean_motion": 13.54322102,
        "meta_eccentricity": 0.03920322,
        "meta_inclination": 74.0534,
        "meta_ra_of_asc_node": 311.6647,
        "meta_arg_of_pericenter": 142.4072,
        "meta_mean_anomaly": 32.4171,
        "meta_ephemeris_type": 0,
        "meta_classification_type": "U",
        "meta_norad_cat_id": 34307,
        "meta_element_set_no": 999,
        "meta_rev_at_epoch": 82874,
        "meta_bstar": 0.00082013934,
        "meta_mean_motion_dot": 8.94e-06,
        "meta_mean_motion_ddot": 0,
        "tle_line1": "1 34307U 93036ND  25347.64377397  .00000894  00000+0  82014-3 0  9993",
        "tle_line2": "2 34307  74.0534 311.6647 0392032 142.4072  32.4171 13.54322102828749"
      },
      "geometry": {
        "type": "Point",
        "coordinates": [
          134.3800301119064,
          -12.612911940131887
        ]
      }
    },
    {
      "type": "Feature",
      "properties": {
        "norad_id": 34313,
        "name": "COSMOS 2251 DEB",
        "group": "cosmos-2251-debris",
        "lat": 32.62705868990025,
        "lon": 111.74044130156504,
        "alt_km": 502.28230098536187,
        "timestamp": "2025-12-14T05:42:18.856569+00:00",
        "meta_object_name": "COSMOS 2251 DEB",
        "meta_object_id": "1993-036NK",
        "meta_epoch": "2025-12-13T14:50:39.633792",
        "meta_mean_motion": 15.19312034,
        "meta_eccentricity": 0.00113767,
        "meta_inclination": 73.9726,
        "meta_ra_of_asc_node": 303.6462,
        "meta_arg_of_pericenter": 80.095,
        "meta_mean_anomaly": 280.153,
        "meta_ephemeris_type": 0,
        "meta_classification_type": "U",
        "meta_norad_cat_id": 34313,
        "meta_element_set_no": 999,
        "meta_rev_at_epoch": 89078,
        "meta_bstar": 0.0042554308,
        "meta_mean_motion_dot": 0.00091131,
        "meta_mean_motion_ddot": 0,
        "tle_line1": "1 34313U 93036NK  25347.61851428  .00091131  00000+0  42554-2 0  9997",
        "tle_line2": "2 34313  73.9726 303.6462 0011376  80.0950 280.1530 15.19312034890784"
      },
      "geometry": {
        "type": "Point",
        "coordinates": [
          111.74044130156504,
          32.62705868990025
        ]
      }
    }
  ]
}